LEMUR-2-FINNIAN         
1 66782U 25276DX  26158.47629557  .00007293  00000+0  58647-3 0  9991
2 66782  97.5259 229.7783 0008473 118.7100 241.4977 15.00255206 18544
LEMUR-2-STARLIGHT       
1 66783U 25276DY  26158.15702508  .00006828  00000+0  56756-3 0  9997
2 66783  97.5275 229.1373 0015254 156.7535 203.4382 14.98937823 28694
LEMUR-2-TARTIFLETTE     
1 66784U 25276DZ  26158.15568876  .00008073  00000+0  67001-3 0  9995
2 66784  97.5276 229.1418 0013874 162.8582 197.3113 14.98959354 28698
LEMUR-2-VUKASIN         
1 66785U 25276EA  26158.15800062  .00007037  00000+0  56628-3 0  9994
2 66785  97.5303 229.4165 0006256 147.7681 212.3926 15.00255263 28647
LEMUR-2-HOTSPUR-TOM     
1 66786U 25276EB  26158.48126369  .00007762  00000+0  64614-3 0  9991
2 66786  97.5246 229.4408 0015277 157.3315 202.8586 14.98839448 28676
LEMUR-2-MYRA            
1 66787U 25276EC  26158.45536520  .00007399  00000+0  59612-3 0  9991
2 66787  97.5219 229.6570 0015413 173.9851 186.1561 15.00114597 28751
LEMUR-2 FIKRETDENGIZ    
1 67363U 26004A   26158.25112233  .00004243  00000+0  46492-3 0  9998
2 67363  97.8016 156.9628 0009194 162.3559 197.7979 14.88253390 21802
TWILIGHT-1 OBJECT B     
1 67364U 26004B   26158.27154988  .00002489  00000+0  27917-3 0  9995
2 67364  97.8061 157.0022 0009293 153.2429 206.9268 14.87668705 21812
LEMUR-2-MARIO-SOUSA     
1 67365U 26004C   26158.23597433  .00004452  00000+0  48532-3 0  9996
2 67365  97.7996 156.9441 0008820 162.5249 197.6273 14.88435782 21810
LEMUR-2-SONNENBLUME     
1 67367U 26004E   26157.49356557  .00003364  00000+0  36987-3 0  9997
2 67367  97.7982 156.2017 0008345 166.5825 193.5615 14.88262544 21702
LEMUR-2-WOBLER          
1 67368U 26004F   26158.22791516  .00004496  00000+0  48994-3 0  9996
2 67368  97.8043 157.0369 0008786 153.7986 206.3677 14.88449995 21816
LEMUR-2-GRAM-E-SUE      
1 67370U 26004H   26157.54606805  .00003295  00000+0  36097-3 0  9996
2 67370  97.7974 156.2680 0007274 166.7193 193.4216 14.88424897 21711
LEMUR-2-KATIE           
1 67387U 26004AA  26157.74599953  .00005809  00000+0  60813-3 0  9997
2 67387  97.8036 156.8905 0004712 114.5413 245.6296 14.89977033 21753
LEMUR-2-HCS-BAZUS       
1 67388U 26004AB  26158.28235762  .00006219  00000+0  65065-3 0  9993
2 67388  97.8027 157.4020 0004335 108.3243 251.8446 14.89977899 21837
