OBJECT_NAME,OBJECT_ID,EPOCH,MEAN_MOTION,ECCENTRICITY,INCLINATION,RA_OF_ASC_NODE,ARG_OF_PERICENTER,MEAN_ANOMALY,EPHEMERIS_TYPE,CLASSIFICATION_TYPE,NORAD_CAT_ID,ELEMENT_SET_NO,REV_AT_EPOCH,BSTAR,MEAN_MOTION_DOT,MEAN_MOTION_DDOT
LEMUR-2-FINNIAN,2025-276DX,2026-06-07T11:25:51.937248,15.00255206,.0008473,97.5259,229.7783,118.7100,241.4977,0,U,66782,999,1854,.58647E-3,.7293E-4,0
LEMUR-2-STARLIGHT,2025-276DY,2026-06-07T03:46:06.966912,14.98937823,.0015254,97.5275,229.1373,156.7535,203.4382,0,U,66783,999,2869,.56756E-3,.6828E-4,0
LEMUR-2-TARTIFLETTE,2025-276DZ,2026-06-07T03:44:11.508864,14.98959354,.0013874,97.5276,229.1418,162.8582,197.3113,0,U,66784,999,2869,.67001E-3,.8073E-4,0
LEMUR-2-VUKASIN,2025-276EA,2026-06-07T03:47:31.253568,15.00255263,.0006256,97.5303,229.4165,147.7681,212.3926,0,U,66785,999,2864,.56628E-3,.7037E-4,0
LEMUR-2-HOTSPUR-TOM,2025-276EB,2026-06-07T11:33:01.182816,14.98839448,.0015277,97.5246,229.4408,157.3315,202.8586,0,U,66786,999,2867,.64614E-3,.7762E-4,0
LEMUR-2-MYRA,2025-276EC,2026-06-07T10:55:43.553280,15.00114597,.0015413,97.5219,229.6570,173.9851,186.1561,0,U,66787,999,2875,.59612E-3,.7399E-4,0
LEMUR-2 FIKRETDENGIZ,2026-004A,2026-06-07T06:01:36.969312,14.88253390,.0009194,97.8016,156.9628,162.3559,197.7979,0,U,67363,999,2180,.46492E-3,.4243E-4,0
TWILIGHT-1 OBJECT B,2026-004B,2026-06-07T06:31:01.909632,14.87668705,.0009293,97.8061,157.0022,153.2429,206.9268,0,U,67364,999,2181,.27917E-3,.2489E-4,0
LEMUR-2-MARIO-SOUSA,2026-004C,2026-06-07T05:39:48.182112,14.88435782,.000882,97.7996,156.9441,162.5249,197.6273,0,U,67365,999,2181,.48532E-3,.4452E-4,0
LEMUR-2-SONNENBLUME,2026-004E,2026-06-06T11:50:44.065248,14.88262544,.0008345,97.7982,156.2017,166.5825,193.5615,0,U,67367,999,2170,.36987E-3,.3364E-4,0
LEMUR-2-WOBLER,2026-004F,2026-06-07T05:28:11.869824,14.88449995,.0008786,97.8043,157.0369,153.7986,206.3677,0,U,67368,999,2181,.48994E-3,.4496E-4,0
LEMUR-2-GRAM-E-SUE,2026-004H,2026-06-06T13:06:20.279520,14.88424897,.0007274,97.7974,156.2680,166.7193,193.4216,0,U,67370,999,2171,.36097179E-3,.3295E-4,0
LEMUR-2-KATIE,2026-004AA,2026-06-06T17:54:14.359392,14.89977033,.0004712,97.8036,156.8905,114.5413,245.6296,0,U,67387,999,2175,.60813E-3,.5809E-4,0
LEMUR-2-HCS-BAZUS,2026-004AB,2026-06-07T06:46:35.698368,14.89977899,.0004335,97.8027,157.4020,108.3243,251.8446,0,U,67388,999,2183,.65065E-3,.6219E-4,0
